CUTE-1 (CO-55)          
1 27844U 03031E   26004.28239526  .00000607  00000+0  28249-3 0  9991
2 27844  98.6761  14.8945 0008726 305.4232  54.6132 14.24203192168348
CUBESAT XI-IV (CO-57)   
1 27848U 03031J   26003.97872735  .00000541  00000+0  25712-3 0  9994
2 27848  98.6793  14.4393 0008883 326.0061  34.0548 14.23507472168017
CUBESAT XI-V            
1 28895U 05043F   26003.87437113  .00003147  00000+0  50887-3 0  9994
2 28895  98.2734 156.3308 0014414  11.3904 348.7626 14.72005770 77570
CUTE-1.7+APD II (CO-65) 
1 32785U 08021C   25351.68477250  .00005656  00000+0  38073-3 0  9996
2 32785  97.8081 324.8433 0007829 290.5969  69.4418 15.07103756957832
CANX-2                  
1 32790U 08021H   26003.85719350  .00008175  00000+0  59483-3 0  9993
2 32790  97.8469 340.8040 0008888 232.4740 127.5678 15.04041392960098
SEEDS II (CO-66)        
1 32791U 08021J   26003.94089823  .00026827  00000+0  10378-2 0  9992
2 32791  97.7449 354.8651 0004329 135.4918 224.6668 15.26176257962187
SWISSCUBE               
1 35932U 09051B   26004.28767189  .00002224  00000+0  45295-3 0  9994
2 35932  98.4144 269.2741 0007181  12.9594 347.1790 14.62041133865209
BEESAT-1                
1 35933U 09051C   26004.21512956  .00001874  00000+0  38896-3 0  9997
2 35933  98.4073 269.1683 0005932  28.3801 331.7721 14.61348354865239
ITUPSAT1                
1 35935U 09051E   26004.26944484  .00001733  00000+0  37039-3 0  9991
2 35935  98.4165 268.5809 0008262  34.5111 325.6623 14.60098031864817
TISAT 1                 
1 36799U 10035E   26004.29968694  .00024327  00000+0  99104-3 0  9991
2 36799  98.0616 297.3652 0004845  92.5996 267.5795 15.24467887842671
AEROCUBE 4.5A           
1 38767U 12048K   26004.07865460  .00068247  00000+0  10596-2 0  9993
2 38767  64.6399 243.0556 0062103 225.3317 134.2754 15.51330464346933
STRAND-1                
1 39090U 13009E   26004.29898513  .00000597  00000+0  21561-3 0  9999
2 39090  98.3829 188.6133 0008780   8.1770 351.9558 14.37028730673522
BRITE-AUSTRIA           
1 39091U 13009F   26004.03429746  .00000420  00000+0  15773-3 0  9993
2 39091  98.3894 187.5810 0010475  16.6262 343.5266 14.36451902673487
NEE-01 PEGASO           
1 39151U 13018B   26003.88324994  .00005066  00000+0  49815-3 0  9996
2 39151  98.0969 142.9853 0012792 350.3086   9.7884 14.92534716686187
POPACS 1                
1 39268U 13055D   26004.22173799  .00394727  61212-4  69009-3 0  9999
2 39268  80.9469 181.8126 0082855 322.8184  36.7364 15.95726974647145
POPACS 2                
1 39269U 13055E   26004.21637814  .00035414  00000+0  63801-3 0  9994
2 39269  80.9954 331.0860 0442410 358.7593   1.2475 14.84655963638829
POPACS 3                
1 39270U 13055F   26004.09030075  .00015292  00000+0  37612-3 0  9991
2 39270  81.0021  46.6373 0565692 208.4506 148.4715 14.52404006614706
ZACUBE-1 (TSHEPISOSAT)  
1 39417U 13066B   25364.54616869  .00009097  00000+0  73614-3 0  9993
2 39417  97.8052 321.1188 0042389  90.5123 270.0957 14.99273357655441
WNISAT-1                
1 39423U 13066H   26004.31617404  .00001123  00000+0  21318-3 0  9999
2 39423  97.6945 165.3690 0164642  28.4905 332.5174 14.57689355642857
TRITON-1                
1 39427U 13066M   26004.28141568  .00004678  00000+0  57183-3 0  9999
2 39427  97.8332 277.8646 0093078  48.8069 312.1122 14.80658235649824
GOMX-1                  
1 39430U 13066Q   26004.31677961  .00003534  00000+0  54224-3 0  9991
2 39430  97.6575 215.0322 0128825 243.4940 115.3009 14.68735949645850
CUBEBUG-2 (LO-74)       
1 39440U 13066AA  26003.06495040  .00008353  00000+0  79859-3 0  9994
2 39440  97.8734 311.7151 0058283 213.2076 146.5480 14.92207734652354
NEE-02 KRYSAOR          
1 39441U 13066AB  25351.76100244  .00002517  00000+0  28598-3 0  9996
2 39441  97.8738 287.5718 0066127 305.4504  54.0549 14.85627194649256
FUNCUBE-1 (AO-73)       
1 39444U 13066AE  26003.91096809  .00015567  00000+0  10393-2 0  9994
2 39444  97.8090 332.4697 0040108  44.1435 316.2981 15.06440432654900
UWE-3                   
1 39446U 13066AG  26003.37049151  .00008087  00000+0  71920-3 0  9997
2 39446  97.8512 318.7402 0051432 146.9649 213.4802 14.95335464652938
BRITE-CA1 (TORONTO)     
1 40020U 14033L   26004.27250627  .00001803  00000+0  27913-3 0  9996
2 40020  97.9504 136.5125 0080394  81.8886 279.1432 14.72286431618098
DUCHIFAT-1              
1 40021U 14033M   26004.04078176  .00054815  00000+0  12527-2 0  9994
2 40021  98.0747  43.2091 0005228 314.8103  45.2716 15.42650848630287
NANOSATC-BR1            
1 40024U 14033Q   26004.03456388  .00024850  00000+0  98165-3 0  9990
2 40024  98.0876  22.4699 0005359  52.2887 307.8834 15.25493902628904
QB50P1                  
1 40025U 14033R   26003.94882750  .00016269  00000+0  87343-3 0  9997
2 40025  98.0965   3.9607 0011046  71.4225 288.8204 15.14970629628134
QB50P2                  
1 40032U 14033Y   26003.91617689  .00014435  00000+0  83650-3 0  9999
2 40032  98.0647 351.0020 0008509  27.3211 332.8464 15.12286423627812
PERSEUS-M2              
1 40037U 14033AD  26004.30581947  .00003850  00000+0  35878-3 0  9993
2 40037  97.9782 311.7868 0013018 119.5362 240.7157 14.94812565626298
PERSEUS-M1              
1 40039U 14033AF  26004.28940472  .00003134  00000+0  29256-3 0  9992
2 40039  97.9488 305.9885 0012894 118.0897 242.1628 14.94877709626149
POLYITAN-1              
1 40042U 14033AJ  26004.23885590  .00024260  00000+0  92594-3 0  9998
2 40042  98.1063  15.7009 0008538  14.2992 345.8484 15.26626383628523
TIGRISAT                
1 40043U 14033AK  26004.01706067  .00004740  00000+0  56003-3 0  9992
2 40043  97.7572 158.1166 0048950 252.8716 106.7135 14.84272026621261
AEROCUBE 6A             
1 40045U 14033AM  26004.19776601  .00011008  00000+0  97780-3 0  9996
2 40045  97.7037 173.3044 0039762 203.4646 156.4762 14.95697464622086
AEROCUBE 6B             
1 40046U 14033AN  26004.28628646  .00011963  00000+0  10271-2 0  9991
2 40046  97.7040 172.8646 0038160 194.4621 165.5512 14.97048094622216
CANX-4                  
1 40055U 14034C   26004.18720886  .00002008  00000+0  26714-3 0  9990
2 40055  98.3341 233.2705 0012855 172.6842 187.4559 14.80863765620259
CANX-5                  
1 40056U 14034D   26004.18749940  .00002015  00000+0  26797-3 0  9992
2 40056  98.3346 233.3045 0012829 172.9081 187.2314 14.80880002611061
UKUBE-1                 
1 40074U 14037F   26004.18436267  .00015371  00000+0  94188-3 0  9998
2 40074  98.4151 350.7046 0002267  45.2294 314.9117 15.10281540623771
BRITE-PL2 (HEWELIUSZ)   
1 40119U 14049B   26004.30891090  .00003982  00000+0  38044-3 0  9998
2 40119  97.8993 115.2894 0013048 295.4950  64.4920 14.93788471616978
AEROCUBE 5C             
1 40965U 15058B   26004.30369222  .00003685  00000+0  33256-3 0  9995
2 40965  64.7682  52.0124 0135208 127.5115 233.8378 14.90363762341221
AEROCUBE 7              
1 40966U 15058C   26004.27810767  .00004729  00000+0  39060-3 0  9996
2 40966  64.7631  37.6409 0125365 126.9959 234.2708 14.94212558341450
FOX-1A (AO-85)          
1 40967U 15058D   26004.29690540  .00003858  00000+0  35430-3 0  9993
2 40967  64.7766  67.8806 0132559 121.2236 240.1945 14.89864861 89143
SINOD-D 1               
1 40968U 15058E   26004.27373988  .00005051  00000+0  41907-3 0  9999
2 40968  64.7761  51.6313 0120951 119.1037 242.2251 14.94345100 92155
SNAP-3 ALICE            
1 40970U 15058G   26004.20562886  .00044853  00000+0  12310-2 0  9990
2 40970  64.7610 299.4123 0042983 109.8814 250.6960 15.36060783 91527
LMRST-SAT               
1 40971U 15058H   26004.27865049  .00003747  00000+0  34576-3 0  9991
2 40971  64.7771  63.9750 0134957 123.0894 238.3260 14.89506165 89131
SNAP-3 EDDIE            
1 40972U 15058J   26004.17669366  .00064596  00000+0  17120-2 0  9999
2 40972  64.7533 291.2712 0045644 114.1368 246.4550 15.36884759 93647
PROPCUBE 3              
1 40973U 15058K   26004.30228860  .00004295  00000+0  36643-3 0  9997
2 40973  64.7695  44.0663 0127917 125.0222 236.2974 14.92914970 90329
BISONSAT                
1 40974U 15058L   26004.23624079  .00014811  00000+0  80066-3 0  9995
2 40974  64.7627 342.0390 0084649 119.6292 241.3296 15.11813720 90791
SNAP-3 JIMI             
1 40975U 15058M   26004.18647599  .00008252  00000+0  59177-3 0  9993
2 40975  64.7666  17.8429 0110338 122.9674 238.2109 15.00122823 89602
PROPCUBE 1 (FLORA)      
1 40976U 15058N   26004.28691594  .00003940  00000+0  37609-3 0  9994
2 40976  64.7761  82.8115 0134198 125.2496 236.1260 14.88191742 91868
SINOD-D 3               
1 40977U 15058P   26004.30121498  .00004913  00000+0  42596-3 0  9991
2 40977  64.7741  67.0308 0122724 123.7596 237.5282 14.92566698 90287
HORYU-4                 
1 41340U 16012D   26003.74617960  .00076341  00000+0  11657-2 0  9995
2 41340  30.9921 158.6321 0005847  88.2144 271.9176 15.53059902544976
RAVAN                   
1 41849U 16067B   26004.20109759  .00037721  00000+0  91469-3 0  9992
2 41849  98.0136 236.4769 0005567 213.1481 146.9416 15.40952929502335
CELTEE 1                
1 41850U 16067C   26004.02173458  .00010325  00000+0  51700-3 0  9996
2 41850  98.0853 219.3872 0002331  80.3596 279.7899 15.17602564500963
OPTICUBE 04             
1 41851U 16067D   26004.12087311  .00004911  00000+0  31676-3 0  9994
2 41851  98.0808 207.7582 0015152 316.0312  43.9709 15.08717292500420
AEROCUBE 8D             
1 41852U 16067E   26004.17576055  .00012996  00000+0  57984-3 0  9990
2 41852  98.0879 221.9567 0003833   4.8591 355.2680 15.21534390501108
AEROCUBE 8C             
1 41853U 16067F   26004.15944467  .00013687  00000+0  60680-3 0  9990
2 41853  98.0742 219.3907 0004268 272.1832  87.8913 15.21734622501093
CORVUS BC2              
1 42846U 17042X   26004.24650226  .00005559  00000+0  39572-3 0  9999
2 42846  97.3862 172.2941 0012391 318.9867  41.0427 15.04949998462395
